[
    {
        "Altitude(m)": 570115.1385510352,
        "Argument of Periapsis(deg)": 0.006622991110713501,
        "Eccentricity": 0.0,
        "Inclination(deg)": 53.0,
        "Latitude(deg)": -48.76468748418713,
        "Longitude(deg)": 100.46562201669336,
        "Mean Anomaly(deg)": -69.90840713242247,
        "RAAN(deg)": 259.99014336852804,
        "Satellite Name": "Starlink Shell 1 1161",
        "Satellite Number": 1161,
        "Semi-Major Axis(m)": 6931778.249405717,
        "Time(s)": 190
    },
    {
        "Altitude(m)": 570009.5749611787,
        "Argument of Periapsis(deg)": 0.0069715695902247375,
        "Eccentricity": 0.0,
        "Inclination(deg)": 53.0,
        "Latitude(deg)": -48.50244696017813,
        "Longitude(deg)": 101.28049231413563,
        "Mean Anomaly(deg)": -69.28157592886564,
        "RAAN(deg)": 259.9896245984506,
        "Satellite Name": "Starlink Shell 1 1161",
        "Satellite Number": 1161,
        "Semi-Major Axis(m)": 6931778.249405717,
        "Time(s)": 200
    },
    {
        "Altitude(m)": 569901.2598903916,
        "Argument of Periapsis(deg)": 0.007320148069735974,
        "Eccentricity": 0.0,
        "Inclination(deg)": 53.0,
        "Latitude(deg)": -48.23389076208878,
        "Longitude(deg)": 102.08648892303565,
        "Mean Anomaly(deg)": -68.65474472530897,
        "RAAN(deg)": 259.98910582837306,
        "Satellite Name": "Starlink Shell 1 1161",
        "Satellite Number": 1161,
        "Semi-Major Axis(m)": 6931778.249405717,
        "Time(s)": 210
    },
    {
        "Altitude(m)": 569790.2362659951,
        "Argument of Periapsis(deg)": 0.007668726549247212,
        "Eccentricity": 0.0,
        "Inclination(deg)": 53.0,
        "Latitude(deg)": -47.959141831614374,
        "Longitude(deg)": 102.88358228838239,
        "Mean Anomaly(deg)": -68.02791352175227,
        "RAAN(deg)": 259.9885870582956,
        "Satellite Name": "Starlink Shell 1 1161",
        "Satellite Number": 1161,
        "Semi-Major Axis(m)": 6931778.249405717,
        "Time(s)": 220
    },
    {
        "Altitude(m)": 569676.5480694551,
        "Argument of Periapsis(deg)": 0.00801730502875845,
        "Eccentricity": 0.0,
        "Inclination(deg)": 53.0,
        "Latitude(deg)": -47.67832275997013,
        "Longitude(deg)": 103.67175454365864,
        "Mean Anomaly(deg)": -67.40108231819555,
        "RAAN(deg)": 259.98806828821813,
        "Satellite Name": "Starlink Shell 1 1161",
        "Satellite Number": 1161,
        "Semi-Major Axis(m)": 6931778.249405717,
        "Time(s)": 230
    },
    {
        "Altitude(m)": 569560.2403171629,
        "Argument of Periapsis(deg)": 0.008365883508269684,
        "Eccentricity": 0.0,
        "Inclination(deg)": 53.0,
        "Latitude(deg)": -47.39155562544638,
        "Longitude(deg)": 104.4509994747663,
        "Mean Anomaly(deg)": -66.77425111463877,
        "RAAN(deg)": 259.98754951814067,
        "Satellite Name": "Starlink Shell 1 1161",
        "Satellite Number": 1161,
        "Semi-Major Axis(m)": 6931778.249405717,
        "Time(s)": 240
    },
    {
        "Altitude(m)": 569441.3590407689,
        "Argument of Periapsis(deg)": 0.008714461987780921,
        "Eccentricity": 0.0,
        "Inclination(deg)": 53.0,
        "Latitude(deg)": -47.09896184192285,
        "Longitude(deg)": 105.22132096520795,
        "Mean Anomaly(deg)": -66.14741991108211,
        "RAAN(deg)": 259.98703074806315,
        "Satellite Name": "Starlink Shell 1 1161",
        "Satellite Number": 1161,
        "Semi-Major Axis(m)": 6931778.249405717,
        "Time(s)": 250
    },
    {
        "Altitude(m)": 569319.9512670529,
        "Argument of Periapsis(deg)": 0.009063040467292158,
        "Eccentricity": 0.0,
        "Inclination(deg)": 53.0,
        "Latitude(deg)": -46.800662018228195,
        "Longitude(deg)": 105.98273295167809,
        "Mean Anomaly(deg)": -65.52058870752549,
        "RAAN(deg)": 259.98651197798574,
        "Satellite Name": "Starlink Shell 1 1161",
        "Satellite Number": 1161,
        "Semi-Major Axis(m)": 6931778.249405717,
        "Time(s)": 260
    },
    {
        "Altitude(m)": 569196.0649973693,
        "Argument of Periapsis(deg)": 0.009411618946803396,
        "Eccentricity": 0.0,
        "Inclination(deg)": 53.0,
        "Latitude(deg)": -46.49677582817306,
        "Longitude(deg)": 106.7352593803183,
        "Mean Anomaly(deg)": -64.89375750396869,
        "RAAN(deg)": 259.9859932079083,
        "Satellite Name": "Starlink Shell 1 1161",
        "Satellite Number": 1161,
        "Semi-Major Axis(m)": 6931778.249405717,
        "Time(s)": 270
    },
    {
        "Altitude(m)": 569069.7491866164,
        "Argument of Periapsis(deg)": 0.009760197426314633,
        "Eccentricity": 0.0,
        "Inclination(deg)": 53.0,
        "Latitude(deg)": -46.18742189103289,
        "Longitude(deg)": 107.47893265360561,
        "Mean Anomaly(deg)": -64.26692630041192,
        "RAAN(deg)": 259.98547443783076,
        "Satellite Name": "Starlink Shell 1 1161",
        "Satellite Number": 1161,
        "Semi-Major Axis(m)": 6931778.249405717,
        "Time(s)": 280
    },
    {
        "Altitude(m)": 568941.0537218013,
        "Argument of Periapsis(deg)": 0.01010877590582587,
        "Eccentricity": 0.0,
        "Inclination(deg)": 53.0,
        "Latitude(deg)": -45.87271766221342,
        "Longitude(deg)": 108.21379359616488,
        "Mean Anomaly(deg)": -63.640095096855305,
        "RAAN(deg)": 259.9849556677533,
        "Satellite Name": "Starlink Shell 1 1161",
        "Satellite Number": 1161,
        "Semi-Major Axis(m)": 6931778.249405717,
        "Time(s)": 290
    },
    {
        "Altitude(m)": 568810.0294001831,
        "Argument of Periapsis(deg)": 0.010457354385337106,
        "Eccentricity": 0.0,
        "Inclination(deg)": 53.0,
        "Latitude(deg)": -45.55277933379377,
        "Longitude(deg)": 108.93989142890608,
        "Mean Anomaly(deg)": -63.01326389329852,
        "RAAN(deg)": 259.98443689767583,
        "Satellite Name": "Starlink Shell 1 1161",
        "Satellite Number": 1161,
        "Semi-Major Axis(m)": 6931778.249405717,
        "Time(s)": 300
    },
    {
        "Altitude(m)": 568676.7279069866,
        "Argument of Periapsis(deg)": 0.010805932864848343,
        "Eccentricity": 0.0,
        "Inclination(deg)": 53.0,
        "Latitude(deg)": -45.22772174461093,
        "Longitude(deg)": 109.65728224061348,
        "Mean Anomaly(deg)": -62.38643268974186,
        "RAAN(deg)": 259.9839181275984,
        "Satellite Name": "Starlink Shell 1 1161",
        "Satellite Number": 1161,
        "Semi-Major Axis(m)": 6931778.249405717,
        "Time(s)": 310
    },
    {
        "Altitude(m)": 568541.2017927353,
        "Argument of Periapsis(deg)": 0.01115451134435958,
        "Eccentricity": 0.0,
        "Inclination(deg)": 53.0,
        "Latitude(deg)": -44.897658299522725,
        "Longitude(deg)": 110.3660289844679,
        "Mean Anomaly(deg)": -61.75960148618511,
        "RAAN(deg)": 259.9833993575209,
        "Satellite Name": "Starlink Shell 1 1161",
        "Satellite Number": 1161,
        "Semi-Major Axis(m)": 6931778.249405717,
        "Time(s)": 320
    },
    {
        "Altitude(m)": 568403.504450176,
        "Argument of Periapsis(deg)": 0.011503089823870818,
        "Eccentricity": 0.0,
        "Inclination(deg)": 53.0,
        "Latitude(deg)": -44.56270089746891,
        "Longitude(deg)": 111.0662014881163,
        "Mean Anomaly(deg)": -61.13277028262844,
        "RAAN(deg)": 259.9828805874434,
        "Satellite Name": "Starlink Shell 1 1161",
        "Satellite Number": 1161,
        "Semi-Major Axis(m)": 6931778.249405717,
        "Time(s)": 330
    },
    {
        "Altitude(m)": 568263.6900908151,
        "Argument of Periapsis(deg)": 0.011851668303382053,
        "Eccentricity": 0.0,
        "Inclination(deg)": 53.0,
        "Latitude(deg)": -44.22295986793036,
        "Longitude(deg)": 111.75787496567645,
        "Mean Anomaly(deg)": -60.50593907907167,
        "RAAN(deg)": 259.9823618173659,
        "Satellite Name": "Starlink Shell 1 1161",
        "Satellite Number": 1161,
        "Semi-Major Axis(m)": 6931778.249405717,
        "Time(s)": 340
    },
    {
        "Altitude(m)": 568121.8137210837,
        "Argument of Periapsis(deg)": 0.012200246782893292,
        "Eccentricity": 0.0,
        "Inclination(deg)": 53.0,
        "Latitude(deg)": -43.87854391538153,
        "Longitude(deg)": 112.44113005844667,
        "Mean Anomaly(deg)": -59.87910787551495,
        "RAAN(deg)": 259.98184304728846,
        "Satellite Name": "Starlink Shell 1 1161",
        "Satellite Number": 1161,
        "Semi-Major Axis(m)": 6931778.249405717,
        "Time(s)": 350
    },
    {
        "Altitude(m)": 567977.9311181576,
        "Argument of Periapsis(deg)": 0.012548825262404526,
        "Eccentricity": 0.0,
        "Inclination(deg)": 53.0,
        "Latitude(deg)": -43.529560071320006,
        "Longitude(deg)": 113.1160528922813,
        "Mean Anomaly(deg)": -59.25227667195828,
        "RAAN(deg)": 259.981324277211,
        "Satellite Name": "Starlink Shell 1 1161",
        "Satellite Number": 1161,
        "Semi-Major Axis(m)": 6931778.249405717,
        "Time(s)": 360
    },
    {
        "Altitude(m)": 567832.0988053927,
        "Argument of Periapsis(deg)": 0.012897403741915765,
        "Eccentricity": 0.0,
        "Inclination(deg)": 53.0,
        "Latitude(deg)": -43.176113653456724,
        "Longitude(deg)": 113.78273363940019,
        "Mean Anomaly(deg)": -58.62544546840158,
        "RAAN(deg)": 259.9808055071335,
        "Satellite Name": "Starlink Shell 1 1161",
        "Satellite Number": 1161,
        "Semi-Major Axis(m)": 6931778.249405717,
        "Time(s)": 370
    }
]